[{"OBJECT_NAME":"ION SCV-013","OBJECT_ID":"2023-174AW","EPOCH":"2026-03-09T22:59:29.755392","MEAN_MOTION":15.04632564,"ECCENTRICITY":0.00998876,"INCLINATION":97.6297,"RA_OF_ASC_NODE":125.3193,"ARG_OF_PERICENTER":172.5348,"MEAN_ANOMALY":187.7394,"EPHEMERIS_TYPE":0,"CLASSIFICATION_TYPE":"U","NORAD_CAT_ID":58300,"ELEMENT_SET_NO":999,"REV_AT_EPOCH":12661,"BSTAR":0.00023880169,"MEAN_MOTION_DOT":3.68e-5,"MEAN_MOTION_DDOT":0},{"OBJECT_NAME":"STARLINK-31409","OBJECT_ID":"2024-056D","EPOCH":"2026-03-09T11:46:43.082688","MEAN_MOTION":15.27577397,"ECCENTRICITY":0.00010271,"INCLINATION":43.0002,"RA_OF_ASC_NODE":224.9352,"ARG_OF_PERICENTER":252.2132,"MEAN_ANOMALY":107.8607,"EPHEMERIS_TYPE":0,"CLASSIFICATION_TYPE":"U","NORAD_CAT_ID":59299,"ELEMENT_SET_NO":999,"REV_AT_EPOCH":11132,"BSTAR":2.5139573e-5,"MEAN_MOTION_DOT":4.3e-6,"MEAN_MOTION_DDOT":0}]
